{"type": "FeatureCollection", "features": [ {"type": "Feature", "properties": {"norad_id": 34529, "name": "IRIDIUM 33 DEB", "group": "iridium-33-debris", "lat": 62.080021988038915, "lon": 45.92569137177205, "alt_km": 752.7079540218547, "timestamp": "2025-12-04T05:42:43.757288+00:00", "meta": {"OBJECT_NAME": "IRIDIUM 33 DEB", "OBJECT_ID": "1997-051HW", "EPOCH": "2025-12-03T04:25:06.115584", "MEAN_MOTION": 14.40603135, "ECCENTRICITY": 0.00036637, "INCLINATION": 86.3649, "RA_OF_ASC_NODE": 39.4847, "ARG_OF_PERICENTER": 211.6368, "MEAN_ANOMALY": 148.4612, "EPHEMERIS_TYPE": 0, "CLASSIFICATION_TYPE": "U", "NORAD_CAT_ID": 34529, "ELEMENT_SET_NO": 999, "REV_AT_EPOCH": 88004, "BSTAR": 0.00016704296, "MEAN_MOTION_DOT": 5.52e-06, "MEAN_MOTION_DDOT": 0}, "tle": {"line1": "1 34529U 97051HW  25337.18409856  .00000552  00000+0  16704-3 0  9998", "line2": "2 34529  86.3649  39.4847 0003663 211.6368 148.4612 14.40603135880044"}}, "geometry": {"type": "Point", "coordinates": [45.92569137177205, 62.080021988038915]}}, {"type": "Feature", "properties": {"norad_id": 34538, "name": "IRIDIUM 33 DEB", "group": "iridium-33-debris", "lat": -18.287339000814782, "lon": -169.4871566564976, "alt_km": 777.6089762277707, "timestamp": "2025-12-04T05:42:43.757298+00:00", "meta": {"OBJECT_NAME": "IRIDIUM 33 DEB", "OBJECT_ID": "1997-051JF", "EPOCH": "2025-12-03T20:43:39.389376", "MEAN_MOTION": 14.42564801, "ECCENTRICITY": 0.00339216, "INCLINATION": 86.2783, "RA_OF_ASC_NODE": 9.4441, "ARG_OF_PERICENTER": 357.8876, "MEAN_ANOMALY": 57.5805, "EPHEMERIS_TYPE": 0, "CLASSIFICATION_TYPE": "U", "NORAD_CAT_ID": 34538, "ELEMENT_SET_NO": 999, "REV_AT_EPOCH": 87628, "BSTAR": 0.0017800791, "MEAN_MOTION_DOT": 5.966e-05, "MEAN_MOTION_DDOT": 0}, "tle": {"line1": "1 34538U 97051JF  25337.86365034  .00005966  00000+0  17801-2 0  9994", "line2": "2 34538  86.2783   9.4441 0033921 357.8876  57.5805 14.42564801876289"}}, "geometry": {"type": "Point", "coordinates": [-169.4871566564976, -18.287339000814782]}}, {"type": "Feature", "properties": {"norad_id": 34540, "name": "IRIDIUM 33 DEB", "group": "iridium-33-debris", "lat": -18.872386514059638, "lon": -49.771067849169356, "alt_km": 659.3662828484503, "timestamp": "2025-12-04T05:42:43.757309+00:00", "meta": {"OBJECT_NAME": "IRIDIUM 33 DEB", "OBJECT_ID": "1997-051JH", "EPOCH": "2025-12-03T05:26:21.211296", "MEAN_MOTION": 14.74981692, "ECCENTRICITY": 0.0014801, "INCLINATION": 86.3092, "RA_OF_ASC_NODE": 311.9555, "ARG_OF_PERICENTER": 194.145, "MEAN_ANOMALY": 180.1243, "EPHEMERIS_TYPE": 0, "CLASSIFICATION_TYPE": "U", "NORAD_CAT_ID": 34540, "ELEMENT_SET_NO": 999, "REV_AT_EPOCH": 88881, "BSTAR": 0.0021818, "MEAN_MOTION_DOT": 0.00014731, "MEAN_MOTION_DDOT": 0}, "tle": {"line1": "1 34540U 97051JH  25337.22663439  .00014731  00000+0  21818-2 0  9990", "line2": "2 34540  86.3092 311.9555 0014801 194.1450 180.1243 14.74981692888816"}}, "geometry": {"type": "Point", "coordinates": [-49.771067849169356, -18.872386514059638]}}, {"type": "Feature", "properties": {"norad_id": 34648, "name": "IRIDIUM 33 DEB", "group": "iridium-33-debris", "lat": -80.39685773928157, "lon": -96.52906747975621, "alt_km": 768.2835391310937, "timestamp": "2025-12-04T05:42:43.757319+00:00", "meta": {"OBJECT_NAME": "IRIDIUM 33 DEB", "OBJECT_ID": "1997-051JZ", "EPOCH": "2025-12-01T03:11:38.418720", "MEAN_MOTION": 14.1087899, "ECCENTRICITY": 0.01868529, "INCLINATION": 86.3903, "RA_OF_ASC_NODE": 286.6295, "ARG_OF_PERICENTER": 334.6513, "MEAN_ANOMALY": 24.5588, "EPHEMERIS_TYPE": 0, "CLASSIFICATION_TYPE": "U", "NORAD_CAT_ID": 34648, "ELEMENT_SET_NO": 999, "REV_AT_EPOCH": 84797, "BSTAR": 0.0079356223, "MEAN_MOTION_DOT": 0.00016788, "MEAN_MOTION_DDOT": 0}, "tle": {"line1": "1 34648U 97051JZ  25335.13308355  .00016788  00000+0  79356-2 0  9994", "line2": "2 34648  86.3903 286.6295 0186852 334.6513  24.5588 14.10878990847973"}}, "geometry": {"type": "Point", "coordinates": [-96.52906747975621, -80.39685773928157]}}, {"type": "Feature", "properties": {"norad_id": 34651, "name": "IRIDIUM 33 DEB", "group": "iridium-33-debris", "lat": -77.76937164126761, "lon": -18.355516657419436, "alt_km": 723.1968831818322, "timestamp": "2025-12-04T05:42:43.757329+00:00", "meta": {"OBJECT_NAME": "IRIDIUM 33 DEB", "OBJECT_ID": "1997-051KC", "EPOCH": "2025-12-02T05:19:54.206688", "MEAN_MOTION": 14.25531146, "ECCENTRICITY": 0.0141862, "INCLINATION": 86.2826, "RA_OF_ASC_NODE": 145.0488, "ARG_OF_PERICENTER": 237.4272, "MEAN_ANOMALY": 121.3155, "EPHEMERIS_TYPE": 0, "CLASSIFICATION_TYPE": "U", "NORAD_CAT_ID": 34651, "ELEMENT_SET_NO": 999, "REV_AT_EPOCH": 85746, "BSTAR": 0.0036308, "MEAN_MOTION_DOT": 9.56e-05, "MEAN_MOTION_DDOT": 0}, "tle": {"line1": "1 34651U 97051KC  25336.22215517  .00009560  00000+0  36308-2 0  9996", "line2": "2 34651  86.2826 145.0488 0141862 237.4272 121.3155 14.25531146857462"}}, "geometry": {"type": "Point", "coordinates": [-18.355516657419436, -77.76937164126761]}}, {"type": "Feature", "properties": {"norad_id": 34652, "name": "IRIDIUM 33 DEB", "group": "iridium-33-debris", "lat": -79.93676443064378, "lon": -37.40758450582491, "alt_km": 681.9998403273412, "timestamp": "2025-12-04T05:42:43.757339+00:00", "meta": {"OBJECT_NAME": "IRIDIUM 33 DEB", "OBJECT_ID": "1997-051KD", "EPOCH": "2025-12-02T12:03:44.445600", "MEAN_MOTION": 14.61898676, "ECCENTRICITY": 0.00270627, "INCLINATION": 86.3312, "RA_OF_ASC_NODE": 344.5601, "ARG_OF_PERICENTER": 334.9096, "MEAN_ANOMALY": 177.4047, "EPHEMERIS_TYPE": 0, "CLASSIFICATION_TYPE": "U", "NORAD_CAT_ID": 34652, "ELEMENT_SET_NO": 999, "REV_AT_EPOCH": 88334, "BSTAR": 0.0012168376, "MEAN_MOTION_DOT": 6.139e-05, "MEAN_MOTION_DDOT": 0}, "tle": {"line1": "1 34652U 97051KD  25336.50259775  .00006139  00000+0  12168-2 0  9999", "line2": "2 34652  86.3312 344.5601 0027062 334.9096 177.4047 14.61898676883341"}}, "geometry": {"type": "Point", "coordinates": [-37.40758450582491, -79.93676443064378]}}, {"type": "Feature", "properties": {"norad_id": 34690, "name": "IRIDIUM 33 DEB", "group": "iridium-33-debris", "lat": -6.1152403928773875, "lon": 40.297536262306885, "alt_km": 708.9354719459607, "timestamp": "2025-12-04T05:42:43.757350+00:00", "meta": {"OBJECT_NAME": "IRIDIUM 33 DEB", "OBJECT_ID": "1997-051KM", "EPOCH": "2025-12-03T11:52:36.056064", "MEAN_MOTION": 14.55037039, "ECCENTRICITY": 0.0011766, "INCLINATION": 86.3793, "RA_OF_ASC_NODE": 41.009, "ARG_OF_PERICENTER": 56.8306, "MEAN_ANOMALY": 7.0908, "EPHEMERIS_TYPE": 0, "CLASSIFICATION_TYPE": "U", "NORAD_CAT_ID": 34690, "ELEMENT_SET_NO": 999, "REV_AT_EPOCH": 87960, "BSTAR": 0.00070543794, "MEAN_MOTION_DOT": 3.062e-05, "MEAN_MOTION_DDOT": 0}, "tle": {"line1": "1 34690U 97051KM  25337.49486176  .00003062  00000+0  70544-3 0  9992", "line2": "2 34690  86.3793  41.0090 0011766  56.8306   7.0908 14.55037039879604"}}, "geometry": {"type": "Point", "coordinates": [40.297536262306885, -6.1152403928773875]}}, {"type": "Feature", "properties": {"norad_id": 34693, "name": "IRIDIUM 33 DEB", "group": "iridium-33-debris", "lat": 20.96854695705126, "lon": -50.541775539191285, "alt_km": 483.16204883526916, "timestamp": "2025-12-04T05:42:43.757374+00:00", "meta": {"OBJECT_NAME": "IRIDIUM 33 DEB", "OBJECT_ID": "1997-051KQ", "EPOCH": "2025-12-03T09:49:19.549920", "MEAN_MOTION": 15.24618598, "ECCENTRICITY": 0.0016087, "INCLINATION": 86.3049, "RA_OF_ASC_NODE": 308.4487, "ARG_OF_PERICENTER": 66.5202, "MEAN_ANOMALY": 88.8029, "EPHEMERIS_TYPE": 0, "CLASSIFICATION_TYPE": "U", "NORAD_CAT_ID": 34693, "ELEMENT_SET_NO": 999, "REV_AT_EPOCH": 88772, "BSTAR": 0.0053871746, "MEAN_MOTION_DOT": 0.00135539, "MEAN_MOTION_DDOT": 0}, "tle": {"line1": "1 34693U 97051KQ  25337.40925405  .00135539  00000+0  53872-2 0  9998", "line2": "2 34693  86.3049 308.4487 0016087  66.5202  88.8029 15.24618598887720"}}, "geometry": {"type": "Point", "coordinates": [-50.541775539191285, 20.96854695705126]}}, {"type": "Feature", "properties": {"norad_id": 34696, "name": "IRIDIUM 33 DEB", "group": "iridium-33-debris", "lat": -17.01887204609151, "lon": -147.3543854425597, "alt_km": 631.5315688846458, "timestamp": "2025-12-04T05:42:43.757388+00:00", "meta": {"OBJECT_NAME": "IRIDIUM 33 DEB", "OBJECT_ID": "1997-051KT", "EPOCH": "2025-12-03T04:28:11.099712", "MEAN_MOTION": 14.64206057, "ECCENTRICITY": 0.0074915, "INCLINATION": 86.1857, "RA_OF_ASC_NODE": 31.9639, "ARG_OF_PERICENTER": 199.7908, "MEAN_ANOMALY": 216.5568, "EPHEMERIS_TYPE": 0, "CLASSIFICATION_TYPE": "U", "NORAD_CAT_ID": 34696, "ELEMENT_SET_NO": 999, "REV_AT_EPOCH": 86533, "BSTAR": 0.0073652, "MEAN_MOTION_DOT": 0.00040594, "MEAN_MOTION_DDOT": 0}, "tle": {"line1": "1 34696U 97051KT  25337.18623958  .00040594  00000+0  73652-2 0  9998", "line2": "2 34696  86.1857  31.9639 0074915 199.7908 216.5568 14.64206057865338"}}, "geometry": {"type": "Point", "coordinates": [-147.3543854425597, -17.01887204609151]}}, {"type": "Feature", "properties": {"norad_id": 34765, "name": "IRIDIUM 33 DEB", "group": "iridium-33-debris", "lat": 70.071764068277, "lon": -153.75889900049802, "alt_km": 757.4868458108731, "timestamp": "2025-12-04T05:42:43.757400+00:00", "meta": {"OBJECT_NAME": "IRIDIUM 33 DEB", "OBJECT_ID": "1997-051LJ", "EPOCH": "2025-12-02T05:08:41.186976", "MEAN_MOTION": 14.40418764, "ECCENTRICITY": 0.00145508, "INCLINATION": 86.3401, "RA_OF_ASC_NODE": 37.2773, "ARG_OF_PERICENTER": 249.3549, "MEAN_ANOMALY": 173.3707, "EPHEMERIS_TYPE": 0, "CLASSIFICATION_TYPE": "U", "NORAD_CAT_ID": 34765, "ELEMENT_SET_NO": 999, "REV_AT_EPOCH": 87462, "BSTAR": 0.00049787542, "MEAN_MOTION_DOT": 1.602e-05, "MEAN_MOTION_DDOT": 0}, "tle": {"line1": "1 34765U 97051LJ  25336.21436559  .00001602  00000+0  49788-3 0  9998", "line2": "2 34765  86.3401  37.2773 0014550 249.3549 173.3707 14.40418764874623"}}, "geometry": {"type": "Point", "coordinates": [-153.75889900049802, 70.071764068277]}}]}